#cP2023  7  9  0  0  0.00000000      96 ORBIT IGS20 HLM  IGS
## 2270      0.00000000   900.00000000 60134 0.0000000000000
+   32   G01G02G03G04G05G06G07G08G09G10G11G12G13G14G15G16G17
+        G18G19G20G21G22G23G24G25G26G27G28G29G30G31G32  0  0
+          0  0  0  0  0  0  0  0  0  0  0  0  0  0  0  0  0
+          0  0  0  0  0  0  0  0  0  0  0  0  0  0  0  0  0
+          0  0  0  0  0  0  0  0  0  0  0  0  0  0  0  0  0
++         2  2  2  2  2  2  1  2  2  2  2  2  2  2  2  2  2
++         2  2  2  2  2  3  2  2  2  2  2  2  2  1  2  0  0
++         0  0  0  0  0  0  0  0  0  0  0  0  0  0  0  0  0
++         0  0  0  0  0  0  0  0  0  0  0  0  0  0  0  0  0
++         0  0  0  0  0  0  0  0  0  0  0  0  0  0  0  0  0
%c G  cc GPS ccc cccc cccc cccc cccc ccccc ccccc ccccc ccccc
%c cc cc ccc ccc cccc cccc cccc cccc ccccc ccccc ccccc ccccc
%f  1.2500000  1.025000000  0.00000000000  0.000000000000000
%f  0.0000000  0.000000000  0.00000000000  0.000000000000000
%i    0    0    0    0      0      0      0      0         0
%i    0    0    0    0      0      0      0      0         0
/* RAPID ORBIT COMBINATION FROM WEIGHTED AVERAGE OF:        
/* cod emr esa gfz grg jgx jpl ngs sio usn whu              
/* REFERENCED TO IGS TIME (IGST) AND TO WEIGHTED MEAN POLE: 
/* PCV:IGS20      OL/AL:FES2014b NONE     Y  ORB:CMB CLK:CMB
*  2023  7  9  2 15  0.00000000
PG01 -19690.393996 -11331.599038  13698.503260    173.848549  2  6  6  86       
PG02 -21049.920111 -14107.603878   8708.444882   -578.054873  7  7  7 106       
PG03 -15466.621833   -185.985210  21433.836344   -240.162459  7  7  6 106       
PG04 -26144.811957   -805.810715   4968.030161     90.426806  9  4  7 112       
PG05   8201.414893  16543.210460 -19230.991996   -134.170113  7  4  3  97       
PG06    629.364666  19918.429674  17569.092271    579.578507  7  6  5  85       
PG07 -15336.561175   4497.829245 -20817.538486    130.451768  5  6  4 116       
PG08 -20630.517331  -7485.524461 -15307.650554   -131.246444  6  4  6  78       
PG09 -25169.253391   7283.517182  -4559.631353   -116.799500  6  5  2 102       
PG10  10923.783951 -23951.681993  -1635.591059    -44.415472  6  7  6 103       
PG11  12150.200921  23159.205233   4765.029644   -268.095020  4  7  6 114       
PG12  14298.820873   4794.915081  21582.269489   -398.399827  4  5  4  76       
PG13  13152.229400  13184.788173 -19200.073790    544.635220  4  6  6 119       
PG14 -13539.321547  22268.001707  -4642.026527    116.303656  8  6  4  85       
PG15  21664.250997   5406.622745 -15040.011924     56.260791  7  7  4  98       
PG16  -3448.583583 -19759.410135 -17480.772969   -482.918754  8  4  5 115       
PG17 -14052.950567  13615.025898  18439.163241    720.541530  8  7  6 122       
PG18  13039.915589  -7438.624104 -21919.728567   -338.421424  8  6  6 106       
PG19  -6154.747862  14546.739367  21080.140033    341.340978  7  5  5 123       
PG20   3130.519520  23827.367344 -11477.443034    423.693109  6  5  7  89       
PG21 -20812.448354 -16367.837094   5966.869782    152.357109  7  8  8  75       
PG22   2212.303624 -15413.944132  21958.296545    509.986935  5  4  6  77       
PG23  15829.839642 -16588.663836 -13260.303948     41.244102  8 10  7 110       
PG24  21319.134209  13310.208609   8848.990919   -251.648883  5  8  4 115       
PG25  17117.880826  -9345.683486  17596.920123    454.931972  4  4  3  85       
PG26   2860.247089 -25301.100330  -7022.905409    237.012594  7  5  6 100       
PG27  -9616.235753 -13378.155152 -21165.833984      0.703173  7  6  5  94       
PG28    665.613642 -19198.553976  18323.398057     83.092726  6  6  7  79       
PG29  26134.487749  -3828.267612  -3322.057535   -605.053445  7  6  5  96       
PG30  -8321.706649  14225.534948 -20663.766564   -505.626760  4  6  3  94       
PG31  -8367.121506 -22928.006204   9760.267449   -219.708900  3  5  4  63       
PG32  10765.425164 -15101.115506  19122.184532   -517.257445  3  4  5  87       
*  2023  7  9  2 30  0.00000000
PG01 -20505.090245 -12556.486266  11315.376087    173.846694  2  6  6  95       
PG02 -21447.788178 -14806.862833   6013.537052   -578.051460  7  7  7 110       
PG03 -14627.729350  -2545.966297  21875.390927   -240.148801  7  8  6  98       
PG04 -25461.113836  -1129.635808   7698.558167     90.436467  9  4  7 108       
PG05   7445.411054  18486.341200 -17682.647188   -134.171285  8  4  4  86       
PG06   -767.210446  18360.377313  19199.204363    579.575615  7  6  5  92       
PG07 -16830.943693   2583.155744 -20034.249380    130.442004  5  6  3 113       
PG08 -18861.866316  -7992.310271 -17189.374606   -131.247648  6  4  6  56       
PG09 -25564.804513   7094.262361  -1745.001517   -116.791212  6  5  2 102       
PG10  11005.535555 -23522.513695  -4518.372702    -44.416965  7  8  6  96       
PG11  11546.695614  22736.013488   7511.702111   -268.109406  4  7  6 112       
PG12  13261.565397   7102.880044  21614.845378   -398.403770  4  5  4  75       
PG13  10931.961316  13338.526295 -20439.247930    544.639507  4  6  6 118       
PG14 -13548.808402  21515.666863  -7369.242870    116.314500  7  6  4 106       
PG15  20058.179945   6130.233734 -16908.857408     56.264355  6  7  4 100       
PG16  -2493.348063 -21360.712261 -15587.066827   -482.915048  7  5  6 101       
PG17 -15981.768616  13705.642286  16684.987942    720.542507  8  7  6 116       
PG18  14570.942050  -5486.213070 -21542.137296   -338.434395  8  6  6 101       
PG19  -8563.577894  14610.893148  20156.349808    341.345895  7  6  5 118       
PG20   2676.481943  24934.712793  -8993.833498    423.691581  6  5  7  86       
PG21 -21005.520823 -16813.632330   3222.380089    152.357161  7  7  8 110       
PG22   4596.429921 -15572.926354  21446.360320    509.991682  5  4  6  99       
PG23  15466.486753 -14973.651677 -15445.511939     41.247681  8 11  7 104       
PG24  21750.643743  14151.562789   6252.924126   -251.660112  5  8  4 115       
PG25  16545.825493  -7249.190365  19069.725530    454.934093  4  3  2  81       
PG26   3372.959401 -25821.758770  -4304.672588    237.011614  7  5  6  90       
PG27  -7261.544352 -13823.153607 -21780.834498      0.696258  7  7  5  87       
PG28   2206.610375 -17652.490792  19703.454084     83.091852  6  5  7  91       
PG29  26361.677688  -3645.590573   -452.487813   -605.054476  7  6  5  75       
PG30  -9912.802849  12387.072789 -21161.076417   -505.624334  4  6  3  97       
PG31  -7350.822719 -22079.073383  12223.848617   -219.709272  4  5  3  84       
PG32  12831.095989 -15326.327166  17574.491851   -517.264404  3  5  5  96       
*  2023  7  9  2 45  0.00000000
PG01 -21199.052632 -13520.237133   8737.766280    173.844964  2  5  6  87       
PG02 -21653.096562 -15280.293950   3217.320361   -578.048171  7  6  7 106       
PG03 -13911.005231  -4974.680986  21935.335529   -240.135160  7  8  6  96       
PG04 -24500.038308  -1547.092941  10297.524246     90.446165  8  4  7 104       
PG05   6840.149471  20282.905068 -15832.846079   -134.172591  8  4  4  98       
PG06  -2361.342885  16762.117227  20499.547218    579.572744  7  5  5  86       
PG07 -18339.879122    831.061652 -18895.623103    130.432479  5  5  4 109       
PG08 -16931.937307  -8641.630943 -18781.252096   -131.249050  6  5  5  81       
PG09 -25659.930087   6845.910599   1099.562475   -116.782877  6  5  2  93       
PG10  11017.233796 -22786.044840  -7321.592337    -44.418960  7  8  6  90       
PG11  10725.685569  22113.491146  10129.426820   -268.123842  4  7  5 108       
PG12  12352.534235   9443.801790  21265.901128   -398.408196  4  5  4  82       
PG13   8603.055129  13623.504084 -21333.858277    544.644008  4  6  6 129       
PG14 -13498.383793  20478.752895  -9968.366512    116.325337  7  6  4  95       
PG15  18311.894650   6999.342418 -18498.864916     56.267577  6  7  4 107       
PG16  -1705.777310 -22800.386619 -13425.156407   -482.911089  7  5  6 111       
PG17 -17696.638545  13866.451149  14653.291263    720.543083  8  8  6 118       
PG18  16161.987627  -3668.278203 -20794.685272   -338.447407  7  6  6  98       
PG19 -10841.924618  14787.500335  18876.445137    341.350464  7  7  6 121       
PG20   2316.400852  25777.099964  -6356.839920    423.689438  6  4  7  99       
PG21 -20992.729410 -17047.029306    425.697758    152.356350  7  6  8 114       
PG22   6895.517031 -15848.420985  20579.159435    509.996857  6  3  6  91       
PG23  15129.378601 -13117.110157 -17362.960830     41.251332  8 11  7 106       
PG24  22002.264524  14768.650495   3550.776845   -251.671361  5  7  5 114       
PG25  16036.951131  -4983.728202  20203.316506    454.936189  4  3  2  87       
PG26   3790.983662 -26061.282438  -1510.965795    237.010652  6  5  6  84       
PG27  -4883.941036 -14406.806356 -22030.981064      0.689276  7  7  4  89       
PG28   3923.203987 -16091.867668  20743.930144     83.090938  6  5  7  80       
PG29  26277.325312  -3425.558180   2424.814837   -605.055516  6  6  5  71       
PG30 -11611.756288  10601.994445 -21289.630547   -505.621909  4  6  3 100       
PG31  -6114.076385 -21080.743669  14470.417840   -219.710010  4  5  3  85       
PG32  14698.569298 -15613.558752  15726.264182   -517.271459  4  4  5  88       
EOF
